[{"OBJECT_NAME":"STARLINK-11180 [DTC]","OBJECT_ID":"2024-124C","EPOCH":"2025-08-14T08:42:14.160096","MEAN_MOTION":15.69715593,"ECCENTRICITY":0.0001072,"INCLINATION":53.1574,"RA_OF_ASC_NODE":103.1131,"ARG_OF_PERICENTER":111.1117,"MEAN_ANOMALY":249.0016,"EPHEMERIS_TYPE":0,"CLASSIFICATION_TYPE":"U","NORAD_CAT_ID":60185,"ELEMENT_SET_NO":999,"REV_AT_EPOCH":6397,"BSTAR":9.113e-5,"MEAN_MOTION_DOT":0.00010468,"MEAN_MOTION_DDOT":0},{"OBJECT_NAME":"STARLINK-11197 [DTC]","OBJECT_ID":"2024-124D","EPOCH":"2025-08-14T08:35:10.405248","MEAN_MOTION":15.69708178,"ECCENTRICITY":0.0001071,"INCLINATION":53.1585,"RA_OF_ASC_NODE":103.0814,"ARG_OF_PERICENTER":70.2601,"MEAN_ANOMALY":289.8532,"EPHEMERIS_TYPE":0,"CLASSIFICATION_TYPE":"U","NORAD_CAT_ID":60186,"ELEMENT_SET_NO":999,"REV_AT_EPOCH":6397,"BSTAR":3.6049e-6,"MEAN_MOTION_DOT":-1.52e-6,"MEAN_MOTION_DDOT":0},{"OBJECT_NAME":"STARLINK-11194 [DTC]","OBJECT_ID":"2024-124E","EPOCH":"2025-08-13T21:46:18.960096","MEAN_MOTION":15.69713158,"ECCENTRICITY":0.0001087,"INCLINATION":53.1596,"RA_OF_ASC_NODE":105.245,"ARG_OF_PERICENTER":88.718,"MEAN_ANOMALY":271.3962,"EPHEMERIS_TYPE":0,"CLASSIFICATION_TYPE":"U","NORAD_CAT_ID":60187,"ELEMENT_SET_NO":999,"REV_AT_EPOCH":6390,"BSTAR":8.4643e-6,"MEAN_MOTION_DOT":4.37e-6,"MEAN_MOTION_DDOT":0},{"OBJECT_NAME":"STARLINK-11189 [DTC]","OBJECT_ID":"2024-124F","EPOCH":"2025-08-13T23:11:04.792416","MEAN_MOTION":15.69718649,"ECCENTRICITY":0.0001118,"INCLINATION":53.1591,"RA_OF_ASC_NODE":105.6329,"ARG_OF_PERICENTER":59.4648,"MEAN_ANOMALY":300.648,"EPHEMERIS_TYPE":0,"CLASSIFICATION_TYPE":"U","NORAD_CAT_ID":60188,"ELEMENT_SET_NO":999,"REV_AT_EPOCH":6390,"BSTAR":4.3718e-6,"MEAN_MOTION_DOT":-5.9e-7,"MEAN_MOTION_DDOT":0},{"OBJECT_NAME":"STARLINK-11183 [DTC]","OBJECT_ID":"2024-124G","EPOCH":"2025-08-13T23:04:01.099776","MEAN_MOTION":15.69720151,"ECCENTRICITY":8.77e-5,"INCLINATION":53.157,"RA_OF_ASC_NODE":105.5997,"ARG_OF_PERICENTER":87.4036,"MEAN_ANOMALY":272.7082,"EPHEMERIS_TYPE":0,"CLASSIFICATION_TYPE":"U","NORAD_CAT_ID":60189,"ELEMENT_SET_NO":999,"REV_AT_EPOCH":6390,"BSTAR":3.7139e-5,"MEAN_MOTION_DOT":3.915e-5,"MEAN_MOTION_DDOT":0},{"OBJECT_NAME":"STARLINK-11179 [DTC]","OBJECT_ID":"2024-124H","EPOCH":"2025-08-13T22:56:57.246432","MEAN_MOTION":15.69725713,"ECCENTRICITY":9.01e-5,"INCLINATION":53.1588,"RA_OF_ASC_NODE":105.5643,"ARG_OF_PERICENTER":70.9462,"MEAN_ANOMALY":289.1654,"EPHEMERIS_TYPE":0,"CLASSIFICATION_TYPE":"U","NORAD_CAT_ID":60190,"ELEMENT_SET_NO":999,"REV_AT_EPOCH":6390,"BSTAR":1.4682e-6,"MEAN_MOTION_DOT":-4.1e-6,"MEAN_MOTION_DDOT":0},{"OBJECT_NAME":"STARLINK-11175 [DTC]","OBJECT_ID":"2024-124J","EPOCH":"2025-08-14T01:53:15.463680","MEAN_MOTION":15.69716238,"ECCENTRICITY":0.0001129,"INCLINATION":53.1592,"RA_OF_ASC_NODE":104.9084,"ARG_OF_PERICENTER":76.6681,"MEAN_ANOMALY":283.4462,"EPHEMERIS_TYPE":0,"CLASSIFICATION_TYPE":"U","NORAD_CAT_ID":60191,"ELEMENT_SET_NO":999,"REV_AT_EPOCH":6392,"BSTAR":1.3353e-5,"MEAN_MOTION_DOT":1.03e-5,"MEAN_MOTION_DDOT":0},{"OBJECT_NAME":"STARLINK-11173 [DTC]","OBJECT_ID":"2024-124K","EPOCH":"2025-08-13T21:11:08.863008","MEAN_MOTION":15.69714698,"ECCENTRICITY":0.0001298,"INCLINATION":53.158,"RA_OF_ASC_NODE":105.8159,"ARG_OF_PERICENTER":77.1623,"MEAN_ANOMALY":282.954,"EPHEMERIS_TYPE":0,"CLASSIFICATION_TYPE":"U","NORAD_CAT_ID":60192,"ELEMENT_SET_NO":999,"REV_AT_EPOCH":6389,"BSTAR":2.187e-5,"MEAN_MOTION_DOT":2.062e-5,"MEAN_MOTION_DDOT":0},{"OBJECT_NAME":"STARLINK-11172 [DTC]","OBJECT_ID":"2024-124L","EPOCH":"2025-08-14T09:17:33.652320","MEAN_MOTION":15.69702939,"ECCENTRICITY":0.0001254,"INCLINATION":53.159,"RA_OF_ASC_NODE":103.2726,"ARG_OF_PERICENTER":79.4883,"MEAN_ANOMALY":280.6276,"EPHEMERIS_TYPE":0,"CLASSIFICATION_TYPE":"U","NORAD_CAT_ID":60193,"ELEMENT_SET_NO":999,"REV_AT_EPOCH":6397,"BSTAR":3.7927e-6,"MEAN_MOTION_DOT":-1.29e-6,"MEAN_MOTION_DDOT":0},{"OBJECT_NAME":"STARLINK-11152 [DTC]","OBJECT_ID":"2024-124M","EPOCH":"2025-08-13T22:28:41.930688","MEAN_MOTION":15.69711225,"ECCENTRICITY":0.0001144,"INCLINATION":53.1587,"RA_OF_ASC_NODE":105.4359,"ARG_OF_PERICENTER":134.9128,"MEAN_ANOMALY":225.1983,"EPHEMERIS_TYPE":0,"CLASSIFICATION_TYPE":"U","NORAD_CAT_ID":60194,"ELEMENT_SET_NO":999,"REV_AT_EPOCH":6509,"BSTAR":3.8396e-6,"MEAN_MOTION_DOT":-1.23e-6,"MEAN_MOTION_DDOT":0},{"OBJECT_NAME":"STARLINK-11193 [DTC]","OBJECT_ID":"2024-124N","EPOCH":"2025-08-14T09:03:25.574112","MEAN_MOTION":15.69706472,"ECCENTRICITY":0.0001306,"INCLINATION":53.1594,"RA_OF_ASC_NODE":103.2059,"ARG_OF_PERICENTER":96.7719,"MEAN_ANOMALY":263.3448,"EPHEMERIS_TYPE":0,"CLASSIFICATION_TYPE":"U","NORAD_CAT_ID":60195,"ELEMENT_SET_NO":999,"REV_AT_EPOCH":6397,"BSTAR":1.1963e-5,"MEAN_MOTION_DOT":8.6e-6,"MEAN_MOTION_DDOT":0},{"OBJECT_NAME":"STARLINK-31869","OBJECT_ID":"2024-124P","EPOCH":"2025-08-14T08:37:16.195872","MEAN_MOTION":15.30203874,"ECCENTRICITY":0.0001341,"INCLINATION":53.1589,"RA_OF_ASC_NODE":205.4439,"ARG_OF_PERICENTER":80.2483,"MEAN_ANOMALY":279.8669,"EPHEMERIS_TYPE":0,"CLASSIFICATION_TYPE":"U","NORAD_CAT_ID":60196,"ELEMENT_SET_NO":999,"REV_AT_EPOCH":6255,"BSTAR":-2.8437e-5,"MEAN_MOTION_DOT":-1.201e-5,"MEAN_MOTION_DDOT":0},{"OBJECT_NAME":"STARLINK-32023","OBJECT_ID":"2024-124Q","EPOCH":"2025-08-14T07:53:22.057728","MEAN_MOTION":15.30189205,"ECCENTRICITY":0.0001122,"INCLINATION":53.1596,"RA_OF_ASC_NODE":205.9617,"ARG_OF_PERICENTER":95.2612,"MEAN_ANOMALY":264.8517,"EPHEMERIS_TYPE":0,"CLASSIFICATION_TYPE":"U","NORAD_CAT_ID":60197,"ELEMENT_SET_NO":999,"REV_AT_EPOCH":6254,"BSTAR":-9.3736e-6,"MEAN_MOTION_DOT":-6.37e-6,"MEAN_MOTION_DDOT":0},{"OBJECT_NAME":"STARLINK-32046","OBJECT_ID":"2024-124R","EPOCH":"2025-08-14T07:19:55.924032","MEAN_MOTION":15.30200601,"ECCENTRICITY":0.0001315,"INCLINATION":53.159,"RA_OF_ASC_NODE":205.8173,"ARG_OF_PERICENTER":94.4725,"MEAN_ANOMALY":265.6426,"EPHEMERIS_TYPE":0,"CLASSIFICATION_TYPE":"U","NORAD_CAT_ID":60198,"ELEMENT_SET_NO":999,"REV_AT_EPOCH":6377,"BSTAR":3.2406e-6,"MEAN_MOTION_DOT":-2.63e-6,"MEAN_MOTION_DDOT":0},{"OBJECT_NAME":"STARLINK-32049","OBJECT_ID":"2024-124S","EPOCH":"2025-08-14T07:39:41.332896","MEAN_MOTION":15.3019322,"ECCENTRICITY":0.0001266,"INCLINATION":53.1586,"RA_OF_ASC_NODE":205.9028,"ARG_OF_PERICENTER":92.279,"MEAN_ANOMALY":267.8355,"EPHEMERIS_TYPE":0,"CLASSIFICATION_TYPE":"U","NORAD_CAT_ID":60199,"ELEMENT_SET_NO":999,"REV_AT_EPOCH":6377,"BSTAR":1.2287e-5,"MEAN_MOTION_DOT":5.0e-8,"MEAN_MOTION_DDOT":0},{"OBJECT_NAME":"STARLINK-32002","OBJECT_ID":"2024-124T","EPOCH":"2025-08-14T05:47:24.085536","MEAN_MOTION":15.30192593,"ECCENTRICITY":9.84e-5,"INCLINATION":53.1576,"RA_OF_ASC_NODE":206.1252,"ARG_OF_PERICENTER":76.3371,"MEAN_ANOMALY":283.7739,"EPHEMERIS_TYPE":0,"CLASSIFICATION_TYPE":"U","NORAD_CAT_ID":60200,"ELEMENT_SET_NO":999,"REV_AT_EPOCH":6253,"BSTAR":-5.4513e-6,"MEAN_MOTION_DOT":-5.2e-6,"MEAN_MOTION_DDOT":0}]
