STARLINK-11180 [DTC]    
1 60185U 24124C   25226.36266389  .00010468  00000+0  91130-4 0  9999
2 60185  53.1574 103.1131 0001072 111.1117 249.0016 15.69715593 63978
STARLINK-11197 [DTC]    
1 60186U 24124D   25226.35775932 -.00000152  00000+0  36049-5 0  9997
2 60186  53.1585 103.0814 0001071  70.2601 289.8532 15.69708178 63976
STARLINK-11194 [DTC]    
1 60187U 24124E   25225.90716389  .00000437  00000+0  84643-5 0  9997
2 60187  53.1596 105.2450 0001087  88.7180 271.3962 15.69713158 63902
STARLINK-11189 [DTC]    
1 60188U 24124F   25225.96602769 -.00000059  00000+0  43718-5 0  9999
2 60188  53.1591 105.6329 0001118  59.4648 300.6480 15.69718649 63907
STARLINK-11183 [DTC]    
1 60189U 24124G   25225.96112384  .00003915  00000+0  37139-4 0  9991
2 60189  53.1570 105.5997 0000877  87.4036 272.7082 15.69720151 63906
STARLINK-11179 [DTC]    
1 60190U 24124H   25225.95621813 -.00000410  00000+0  14682-5 0  9991
2 60190  53.1588 105.5643 0000901  70.9462 289.1654 15.69725713 63909
STARLINK-11175 [DTC]    
1 60191U 24124J   25226.07865120  .00001030  00000+0  13353-4 0  9998
2 60191  53.1592 104.9084 0001129  76.6681 283.4462 15.69716238 63924
STARLINK-11173 [DTC]    
1 60192U 24124K   25225.88274147  .00002062  00000+0  21870-4 0  9999
2 60192  53.1580 105.8159 0001298  77.1623 282.9540 15.69714698 63899
STARLINK-11172 [DTC]    
1 60193U 24124L   25226.38719505 -.00000129  00000+0  37927-5 0  9992
2 60193  53.1590 103.2726 0001254  79.4883 280.6276 15.69702939 63973
STARLINK-11152 [DTC]    
1 60194U 24124M   25225.93659642 -.00000123  00000+0  38396-5 0  9993
2 60194  53.1587 105.4359 0001144 134.9128 225.1983 15.69711225 65095
STARLINK-11193 [DTC]    
1 60195U 24124N   25226.37737933  .00000860  00000+0  11963-4 0  9990
2 60195  53.1594 103.2059 0001306  96.7719 263.3448 15.69706472 63971
STARLINK-31869          
1 60196U 24124P   25226.35921523 -.00001201  00000+0 -28437-4 0  9995
2 60196  53.1589 205.4439 0001341  80.2483 279.8669 15.30203874 62554
STARLINK-32023          
1 60197U 24124Q   25226.32872752 -.00000637  00000+0 -93736-5 0  9999
2 60197  53.1596 205.9617 0001122  95.2612 264.8517 15.30189205 62549
STARLINK-32046          
1 60198U 24124R   25226.30550838 -.00000263  00000+0  32406-5 0  9997
2 60198  53.1590 205.8173 0001315  94.4725 265.6426 15.30200601 63778
STARLINK-32049          
1 60199U 24124S   25226.31922839  .00000005  00000+0  12287-4 0  9990
2 60199  53.1586 205.9028 0001266  92.2790 267.8355 15.30193220 63770
STARLINK-32002          
1 60200U 24124T   25226.24125099 -.00000520  00000+0 -54513-5 0  9991
2 60200  53.1576 206.1252 0000984  76.3371 283.7739 15.30192593 62536
